{"type": "FeatureCollection", "features": [{"type": "Feature", "properties": {"norad_id": 22675, "name": "COSMOS 2251", "group": "cosmos-2251-debris", "lat": -44.66744571913577, "lon": -81.71135808749551, "alt_km": 778.8105464316832, "timestamp": "2025-12-24T07:45:06.591093+00:00", "meta": {"OBJECT_NAME": "COSMOS 2251", "OBJECT_ID": "1993-036A", "EPOCH": "2025-12-23T06:50:28.658688", "MEAN_MOTION": 14.33207845, "ECCENTRICITY": 0.00243845, "INCLINATION": 74.04, "RA_OF_ASC_NODE": 296.6159, "ARG_OF_PERICENTER": 15.978, "MEAN_ANOMALY": 344.2135, "EPHEMERIS_TYPE": 0, "CLASSIFICATION_TYPE": "U", "NORAD_CAT_ID": 22675, "ELEMENT_SET_NO": 999, "REV_AT_EPOCH": 69924, "BSTAR": 5.4409163e-05, "MEAN_MOTION_DOT": 1.24e-06, "MEAN_MOTION_DDOT": 0}, "tle": {"line1": "1 22675U 93036A   25357.28505392  .00000124  00000+0  54409-4 0  9991", "line2": "2 22675  74.0400 296.6159 0024384  15.9780 344.2135 14.33207845699247"}}, "geometry": {"type": "Point", "coordinates": [-81.71135808749551, -44.66744571913577]}}, {"type": "Feature", "properties": {"norad_id": 33757, "name": "COSMOS 2251 DEB", "group": "cosmos-2251-debris", "lat": -32.427815702467846, "lon": -68.0128094597363, "alt_km": 777.916215552762, "timestamp": "2025-12-24T07:45:06.591117+00:00", "meta": {"OBJECT_NAME": "COSMOS 2251 DEB", "OBJECT_ID": "1993-036E", "EPOCH": "2025-12-23T23:51:30.894048", "MEAN_MOTION": 14.32583753, "ECCENTRICITY": 0.0015614, "INCLINATION": 74.0376, "RA_OF_ASC_NODE": 303.064, "ARG_OF_PERICENTER": 314.5845, "MEAN_ANOMALY": 116.0956, "EPHEMERIS_TYPE": 0, "CLASSIFICATION_TYPE": "U", "NORAD_CAT_ID": 33757, "ELEMENT_SET_NO": 999, "REV_AT_EPOCH": 88157, "BSTAR": 4.6910235e-05, "MEAN_MOTION_DOT": 1.01e-06, "MEAN_MOTION_DDOT": 0}, "tle": {"line1": "1 33757U 93036E   25357.99410757  .00000101  00000+0  46910-4 0  9995", "line2": "2 33757  74.0376 303.0640 0015614 314.5845 116.0956 14.32583753881575"}}, "geometry": {"type": "Point", "coordinates": [-68.0128094597363, -32.427815702467846]}}, {"type": "Feature", "properties": {"norad_id": 33758, "name": "COSMOS 2251 DEB", "group": "cosmos-2251-debris", "lat": -14.282159143208673, "lon": -170.970265280288, "alt_km": 723.6946211949971, "timestamp": "2025-12-24T07:45:06.591132+00:00", "meta": {"OBJECT_NAME": "COSMOS 2251 DEB", "OBJECT_ID": "1993-036F", "EPOCH": "2025-12-23T22:27:50.406912", "MEAN_MOTION": 14.51656106, "ECCENTRICITY": 0.0017178, "INCLINATION": 74.0261, "RA_OF_ASC_NODE": 193.9401, "ARG_OF_PERICENTER": 259.8682, "MEAN_ANOMALY": 223.5939, "EPHEMERIS_TYPE": 0, "CLASSIFICATION_TYPE": "U", "NORAD_CAT_ID": 33758, "ELEMENT_SET_NO": 999, "REV_AT_EPOCH": 88467, "BSTAR": 0.00077283583, "MEAN_MOTION_DOT": 3.078e-05, "MEAN_MOTION_DDOT": 0}, "tle": {"line1": "1 33758U 93036F   25357.93600008  .00003078  00000+0  77284-3 0  9993", "line2": "2 33758  74.0261 193.9401 0017178 259.8682 223.5939 14.51656106884670"}}, "geometry": {"type": "Point", "coordinates": [-170.970265280288, -14.282159143208673]}}, {"type": "Feature", "properties": {"norad_id": 33760, "name": "COSMOS 2251 DEB", "group": "cosmos-2251-debris", "lat": -17.11956993538069, "lon": -104.86097919646451, "alt_km": 763.1905207358959, "timestamp": "2025-12-24T07:45:06.591144+00:00", "meta": {"OBJECT_NAME": "COSMOS 2251 DEB", "OBJECT_ID": "1993-036H", "EPOCH": "2025-12-23T22:10:11.028864", "MEAN_MOTION": 14.35679732, "ECCENTRICITY": 0.00203663, "INCLINATION": 74.032, "RA_OF_ASC_NODE": 260.9311, "ARG_OF_PERICENTER": 356.6386, "MEAN_ANOMALY": 83.004, "EPHEMERIS_TYPE": 0, "CLASSIFICATION_TYPE": "U", "NORAD_CAT_ID": 33760, "ELEMENT_SET_NO": 999, "REV_AT_EPOCH": 88285, "BSTAR": 0.00010452282, "MEAN_MOTION_DOT": 2.76e-06, "MEAN_MOTION_DDOT": 0}, "tle": {"line1": "1 33760U 93036H   25357.92373876  .00000276  00000+0  10452-3 0  9996", "line2": "2 33760  74.0320 260.9311 0020366 356.6386  83.0040 14.35679732882856"}}, "geometry": {"type": "Point", "coordinates": [-104.86097919646451, -17.11956993538069]}}, {"type": "Feature", "properties": {"norad_id": 33761, "name": "COSMOS 2251 DEB", "group": "cosmos-2251-debris", "lat": -17.100465979597733, "lon": 55.72585791979018, "alt_km": 760.5558783642136, "timestamp": "2025-12-24T07:45:06.591155+00:00", "meta": {"OBJECT_NAME": "COSMOS 2251 DEB", "OBJECT_ID": "1993-036J", "EPOCH": "2025-12-21T22:19:07.214304", "MEAN_MOTION": 14.42569564, "ECCENTRICITY": 0.00232733, "INCLINATION": 74.0352, "RA_OF_ASC_NODE": 235.1119, "ARG_OF_PERICENTER": 314.0482, "MEAN_ANOMALY": 61.202, "EPHEMERIS_TYPE": 0, "CLASSIFICATION_TYPE": "U", "NORAD_CAT_ID": 33761, "ELEMENT_SET_NO": 999, "REV_AT_EPOCH": 88367, "BSTAR": 0.00034386212, "MEAN_MOTION_DOT": 1.118e-05, "MEAN_MOTION_DDOT": 0}, "tle": {"line1": "1 33761U 93036J   25355.92994461  .00001118  00000+0  34386-3 0  9992", "line2": "2 33761  74.0352 235.1119 0023273 314.0482  61.2020 14.42569564883673"}}, "geometry": {"type": "Point", "coordinates": [55.72585791979018, -17.100465979597733]}}, {"type": "Feature", "properties": {"norad_id": 33762, "name": "COSMOS 2251 DEB", "group": "cosmos-2251-debris", "lat": -15.862630254849782, "lon": 113.51359720823591, "alt_km": 793.6109426577486, "timestamp": "2025-12-24T07:45:06.591166+00:00", "meta": {"OBJECT_NAME": "COSMOS 2251 DEB", "OBJECT_ID": "1993-036K", "EPOCH": "2025-12-23T22:46:57.601056", "MEAN_MOTION": 14.33667097, "ECCENTRICITY": 0.00154599, "INCLINATION": 74.0421, "RA_OF_ASC_NODE": 289.5329, "ARG_OF_PERICENTER": 348.3112, "MEAN_ANOMALY": 80.133, "EPHEMERIS_TYPE": 0, "CLASSIFICATION_TYPE": "U", "NORAD_CAT_ID": 33762, "ELEMENT_SET_NO": 999, "REV_AT_EPOCH": 88208, "BSTAR": 5.6754765e-05, "MEAN_MOTION_DOT": 1.31e-06, "MEAN_MOTION_DDOT": 0}, "tle": {"line1": "1 33762U 93036K   25357.94927779  .00000131  00000+0  56755-4 0  9994", "line2": "2 33762  74.0421 289.5329 0015459 348.3112  80.1330 14.33667097882082"}}, "geometry": {"type": "Point", "coordinates": [113.51359720823591, -15.862630254849782]}}, {"type": "Feature", "properties": {"norad_id": 33764, "name": "COSMOS 2251 DEB", "group": "cosmos-2251-debris", "lat": -38.56377709297888, "lon": 84.46311294725308, "alt_km": 749.4712112671386, "timestamp": "2025-12-24T07:45:06.591177+00:00", "meta": {"OBJECT_NAME": "COSMOS 2251 DEB", "OBJECT_ID": "1993-036M", "EPOCH": "2025-12-23T21:03:57.788352", "MEAN_MOTION": 14.39531959, "ECCENTRICITY": 0.00234381, "INCLINATION": 74.0332, "RA_OF_ASC_NODE": 252.0905, "ARG_OF_PERICENTER": 215.6989, "MEAN_ANOMALY": 218.1571, "EPHEMERIS_TYPE": 0, "CLASSIFICATION_TYPE": "U", "NORAD_CAT_ID": 33764, "ELEMENT_SET_NO": 999, "REV_AT_EPOCH": 88317, "BSTAR": 0.00027871889, "MEAN_MOTION_DOT": 8.46e-06, "MEAN_MOTION_DDOT": 0}, "tle": {"line1": "1 33764U 93036M   25357.87775218  .00000846  00000+0  27872-3 0  9997", "line2": "2 33764  74.0332 252.0905 0023438 215.6989 218.1571 14.39531959883178"}}, "geometry": {"type": "Point", "coordinates": [84.46311294725308, -38.56377709297888]}}, {"type": "Feature", "properties": {"norad_id": 33765, "name": "COSMOS 2251 DEB", "group": "cosmos-2251-debris", "lat": 58.514038745697825, "lon": -58.77536448113664, "alt_km": 551.9269426504552, "timestamp": "2025-12-24T07:45:06.591188+00:00", "meta": {"OBJECT_NAME": "COSMOS 2251 DEB", "OBJECT_ID": "1993-036N", "EPOCH": "2025-12-23T20:47:48.108192", "MEAN_MOTION": 15.10574288, "ECCENTRICITY": 0.00648865, "INCLINATION": 74.009, "RA_OF_ASC_NODE": 150.0883, "ARG_OF_PERICENTER": 240.4911, "MEAN_ANOMALY": 276.3386, "EPHEMERIS_TYPE": 0, "CLASSIFICATION_TYPE": "U", "NORAD_CAT_ID": 33765, "ELEMENT_SET_NO": 999, "REV_AT_EPOCH": 89786, "BSTAR": 0.001590651, "MEAN_MOTION_DOT": 0.00027676, "MEAN_MOTION_DDOT": 0}, "tle": {"line1": "1 33765U 93036N   25357.86652903  .00027676  00000+0  15907-2 0  9997", "line2": "2 33765  74.0090 150.0883 0064886 240.4911 276.3386 15.10574288897868"}}, "geometry": {"type": "Point", "coordinates": [-58.77536448113664, 58.514038745697825]}}, {"type": "Feature", "properties": {"norad_id": 33766, "name": "COSMOS 2251 DEB", "group": "cosmos-2251-debris", "lat": 65.88981205779845, "lon": 153.238416131039, "alt_km": 789.5336765709453, "timestamp": "2025-12-24T07:45:06.591199+00:00", "meta": {"OBJECT_NAME": "COSMOS 2251 DEB", "OBJECT_ID": "1993-036P", "EPOCH": "2025-12-23T11:20:30.886944", "MEAN_MOTION": 14.3496397, "ECCENTRICITY": 0.00647321, "INCLINATION": 74.186, "RA_OF_ASC_NODE": 115.4891, "ARG_OF_PERICENTER": 315.9172, "MEAN_ANOMALY": 43.683, "EPHEMERIS_TYPE": 0, "CLASSIFICATION_TYPE": "U", "NORAD_CAT_ID": 33766, "ELEMENT_SET_NO": 999, "REV_AT_EPOCH": 87899, "BSTAR": 0.00047936733, "MEAN_MOTION_DOT": 1.372e-05, "MEAN_MOTION_DDOT": 0}, "tle": {"line1": "1 33766U 93036P   25357.47257971  .00001372  00000+0  47937-3 0  9995", "line2": "2 33766  74.1860 115.4891 0064732 315.9172  43.6830 14.34963970878993"}}, "geometry": {"type": "Point", "coordinates": [153.238416131039, 65.88981205779845]}}, {"type": "Feature", "properties": {"norad_id": 33768, "name": "COSMOS 2251 DEB", "group": "cosmos-2251-debris", "lat": 52.42975342054744, "lon": -137.02809914958405, "alt_km": 889.3498088842643, "timestamp": "2025-12-24T07:45:06.591210+00:00", "meta": {"OBJECT_NAME": "COSMOS 2251 DEB", "OBJECT_ID": "1993-036R", "EPOCH": "2025-12-23T21:22:25.592736", "MEAN_MOTION": 13.58464063, "ECCENTRICITY": 0.03668185, "INCLINATION": 74.0665, "RA_OF_ASC_NODE": 201.8715, "ARG_OF_PERICENTER": 357.183, "MEAN_ANOMALY": 100.8958, "EPHEMERIS_TYPE": 0, "CLASSIFICATION_TYPE": "U", "NORAD_CAT_ID": 33768, "ELEMENT_SET_NO": 999, "REV_AT_EPOCH": 83447, "BSTAR": 0.00031687158, "MEAN_MOTION_DOT": 3.36e-06, "MEAN_MOTION_DDOT": 0}, "tle": {"line1": "1 33768U 93036R   25357.89057399  .00000336  00000+0  31687-3 0  9999", "line2": "2 33768  74.0665 201.8715 0366818 357.1830 100.8958 13.58464063834477"}}, "geometry": {"type": "Point", "coordinates": [-137.02809914958405, 52.42975342054744]}}]}